STARLINK-36164          
1 67127U 25299AB  26008.67365787  .00101915  00000+0  17191-2 0  9992
2 67127  43.0010 154.3276 0001707 270.6558  89.4106 15.50601043  3869
STARLINK-35685          
1 67128U 25299AC  26009.58335648  .00016717  00000+0  40711-3 0  9997
2 67128  42.9996 149.3691 0001850 280.2698 335.6450 15.40660273  5282
STARLINK-36214          
1 67129U 25299AD  26008.67331387  .00098845  00000+0  16687-2 0  9999
2 67129  43.0008 154.3242 0001765 264.6094  95.4565 15.50591951  3865
STARLINK-36194          
1 67130U 25299AE  26007.70641266  .00106350  00000+0  17929-2 0  9995
2 67130  42.9999 159.9704 0003473 262.6217  97.4249 15.50593986  3716
ZIYUAN 3-04 (ZY 3-04)   
1 67131U 25300A   26009.18248613  .00001730  00000+0  80130-4 0  9994
2 67131  97.4889  88.1516 0003945 118.6144 241.5489 15.21458354  3666
CZ-4B R/B               
1 67132U 25300B   26009.51500471  .00133824  75227-5  54254-3 0  9991
2 67132  97.5508  90.4502 0154907 286.9163  71.5165 15.70175256  3823
KUIPER-00144            
1 67133U 25301A   26008.97429420  .00030713  00000+0  86859-3 0  9996
2 67133  51.8704 353.7783 0006532 160.5450 199.5786 15.36039466  4552
KUIPER-00164            
1 67134U 25301B   26009.22419635  .00036348  00000+0  10074-2 0  9998
2 67134  51.8728 352.4571 0002846 142.3860 217.7325 15.36600987  4775
KUIPER-00175            
1 67135U 25301C   26009.21634925  .00020132  00000+0  55372-3 0  9994
2 67135  51.8749 352.4026 0002860  94.1764 265.9549 15.37170133  4664
KUIPER-00179            
1 67136U 25301D   26009.22198473  .00032257  00000+0  89168-3 0  9990
2 67136  51.8742 352.4413 0003295 121.3048 238.8262 15.36740117  4776
KUIPER-00181            
1 67137U 25301E   26009.64186569  .00028477  00000+0  84000-3 0  9999
2 67137  51.8650 350.7392 0010425 189.8231 170.2552 15.34726511  4814
KUIPER-00183            
1 67138U 25301F   26009.25565918  .00032380  00000+0  95290-3 0  9997
2 67138  51.8629 352.6464 0011186 190.1643 169.9118 15.34724992  4767
