CCSDS_OMM_VERS = 2.0
CREATION_DATE  = 
ORIGINATOR     = 

OBJECT_NAME    = STARLINK-36164
OBJECT_ID      = 2025-299AB
CENTER_NAME    = EARTH
REF_FRAME      = TEME
TIME_SYSTEM    = UTC
MEAN_ELEMENT_THEORY = SGP/SGP4

EPOCH          = 2026-01-08T16:10:04.039968
MEAN_MOTION    = 15.50601043
ECCENTRICITY   = .0001707
INCLINATION    = 43.0010
RA_OF_ASC_NODE = 154.3276
ARG_OF_PERICENTER = 270.6558
MEAN_ANOMALY   = 89.4106

EPHEMERIS_TYPE = 0
CLASSIFICATION_TYPE = U
NORAD_CAT_ID   = 67127
ELEMENT_SET_NO = 999
REV_AT_EPOCH   = 386
BSTAR          = .17191E-2
MEAN_MOTION_DOT = .101915E-2
MEAN_MOTION_DDOT = 0

CCSDS_OMM_VERS = 2.0
CREATION_DATE  = 
ORIGINATOR     = 

OBJECT_NAME    = STARLINK-35685
OBJECT_ID      = 2025-299AC
CENTER_NAME    = EARTH
REF_FRAME      = TEME
TIME_SYSTEM    = UTC
MEAN_ELEMENT_THEORY = SGP/SGP4

EPOCH          = 2026-01-09T14:00:01.999872
MEAN_MOTION    = 15.40660273
ECCENTRICITY   = .00018503
INCLINATION    = 42.9996
RA_OF_ASC_NODE = 149.3691
ARG_OF_PERICENTER = 280.2698
MEAN_ANOMALY   = 335.6450

EPHEMERIS_TYPE = 0
CLASSIFICATION_TYPE = U
NORAD_CAT_ID   = 67128
ELEMENT_SET_NO = 999
REV_AT_EPOCH   = 528
BSTAR          = .40710999E-3
MEAN_MOTION_DOT = .16717E-3
MEAN_MOTION_DDOT = 0

CCSDS_OMM_VERS = 2.0
CREATION_DATE  = 
ORIGINATOR     = 

OBJECT_NAME    = STARLINK-36214
OBJECT_ID      = 2025-299AD
CENTER_NAME    = EARTH
REF_FRAME      = TEME
TIME_SYSTEM    = UTC
MEAN_ELEMENT_THEORY = SGP/SGP4

EPOCH          = 2026-01-08T16:09:34.318368
MEAN_MOTION    = 15.50591951
ECCENTRICITY   = .0001765
INCLINATION    = 43.0008
RA_OF_ASC_NODE = 154.3242
ARG_OF_PERICENTER = 264.6094
MEAN_ANOMALY   = 95.4565

EPHEMERIS_TYPE = 0
CLASSIFICATION_TYPE = U
NORAD_CAT_ID   = 67129
ELEMENT_SET_NO = 999
REV_AT_EPOCH   = 386
BSTAR          = .16687E-2
MEAN_MOTION_DOT = .98845E-3
MEAN_MOTION_DDOT = 0

CCSDS_OMM_VERS = 2.0
CREATION_DATE  = 
ORIGINATOR     = 

OBJECT_NAME    = STARLINK-36194
OBJECT_ID      = 2025-299AE
CENTER_NAME    = EARTH
REF_FRAME      = TEME
TIME_SYSTEM    = UTC
MEAN_ELEMENT_THEORY = SGP/SGP4

EPOCH          = 2026-01-07T16:57:14.053824
MEAN_MOTION    = 15.50593986
ECCENTRICITY   = .00034733
INCLINATION    = 42.9999
RA_OF_ASC_NODE = 159.9704
ARG_OF_PERICENTER = 262.6217
MEAN_ANOMALY   = 97.4249

EPHEMERIS_TYPE = 0
CLASSIFICATION_TYPE = U
NORAD_CAT_ID   = 67130
ELEMENT_SET_NO = 999
REV_AT_EPOCH   = 371
BSTAR          = .17928919E-2
MEAN_MOTION_DOT = .10635E-2
MEAN_MOTION_DDOT = 0

CCSDS_OMM_VERS = 2.0
CREATION_DATE  = 
ORIGINATOR     = 

OBJECT_NAME    = ZIYUAN 3-04 (ZY 3-04)
OBJECT_ID      = 2025-300A
CENTER_NAME    = EARTH
REF_FRAME      = TEME
TIME_SYSTEM    = UTC
MEAN_ELEMENT_THEORY = SGP/SGP4

EPOCH          = 2026-01-09T04:22:46.801632
MEAN_MOTION    = 15.21458354
ECCENTRICITY   = .00039457
INCLINATION    = 97.4889
RA_OF_ASC_NODE = 88.1516
ARG_OF_PERICENTER = 118.6144
MEAN_ANOMALY   = 241.5489

EPHEMERIS_TYPE = 0
CLASSIFICATION_TYPE = U
NORAD_CAT_ID   = 67131
ELEMENT_SET_NO = 999
REV_AT_EPOCH   = 366
BSTAR          = .80129707E-4
MEAN_MOTION_DOT = .173E-4
MEAN_MOTION_DDOT = 0

CCSDS_OMM_VERS = 2.0
CREATION_DATE  = 
ORIGINATOR     = 

OBJECT_NAME    = CZ-4B R/B
OBJECT_ID      = 2025-300B
CENTER_NAME    = EARTH
REF_FRAME      = TEME
TIME_SYSTEM    = UTC
MEAN_ELEMENT_THEORY = SGP/SGP4

EPOCH          = 2026-01-09T12:21:36.406944
MEAN_MOTION    = 15.70175256
ECCENTRICITY   = .01549072
INCLINATION    = 97.5508
RA_OF_ASC_NODE = 90.4502
ARG_OF_PERICENTER = 286.9163
MEAN_ANOMALY   = 71.5165

EPHEMERIS_TYPE = 0
CLASSIFICATION_TYPE = U
NORAD_CAT_ID   = 67132
ELEMENT_SET_NO = 999
REV_AT_EPOCH   = 382
BSTAR          = .54254242E-3
MEAN_MOTION_DOT = .133824E-2
MEAN_MOTION_DDOT = .752274E-5

CCSDS_OMM_VERS = 2.0
CREATION_DATE  = 
ORIGINATOR     = 

OBJECT_NAME    = KUIPER-00144
OBJECT_ID      = 2025-301A
CENTER_NAME    = EARTH
REF_FRAME      = TEME
TIME_SYSTEM    = UTC
MEAN_ELEMENT_THEORY = SGP/SGP4

EPOCH          = 2026-01-08T23:22:59.018880
MEAN_MOTION    = 15.36039466
ECCENTRICITY   = .0006532
INCLINATION    = 51.8704
RA_OF_ASC_NODE = 353.7783
ARG_OF_PERICENTER = 160.5450
MEAN_ANOMALY   = 199.5786

EPHEMERIS_TYPE = 0
CLASSIFICATION_TYPE = U
NORAD_CAT_ID   = 67133
ELEMENT_SET_NO = 999
REV_AT_EPOCH   = 455
BSTAR          = .86859418E-3
MEAN_MOTION_DOT = .30713E-3
MEAN_MOTION_DDOT = 0

CCSDS_OMM_VERS = 2.0
CREATION_DATE  = 
ORIGINATOR     = 

OBJECT_NAME    = KUIPER-00164
OBJECT_ID      = 2025-301B
CENTER_NAME    = EARTH
REF_FRAME      = TEME
TIME_SYSTEM    = UTC
MEAN_ELEMENT_THEORY = SGP/SGP4

EPOCH          = 2026-01-09T05:22:50.564640
MEAN_MOTION    = 15.36600987
ECCENTRICITY   = .00028461
INCLINATION    = 51.8728
RA_OF_ASC_NODE = 352.4571
ARG_OF_PERICENTER = 142.3860
MEAN_ANOMALY   = 217.7325

EPHEMERIS_TYPE = 0
CLASSIFICATION_TYPE = U
NORAD_CAT_ID   = 67134
ELEMENT_SET_NO = 999
REV_AT_EPOCH   = 477
BSTAR          = .10073975E-2
MEAN_MOTION_DOT = .36348E-3
MEAN_MOTION_DDOT = 0

CCSDS_OMM_VERS = 2.0
CREATION_DATE  = 
ORIGINATOR     = 

OBJECT_NAME    = KUIPER-00175
OBJECT_ID      = 2025-301C
CENTER_NAME    = EARTH
REF_FRAME      = TEME
TIME_SYSTEM    = UTC
MEAN_ELEMENT_THEORY = SGP/SGP4

EPOCH          = 2026-01-09T05:11:32.575200
MEAN_MOTION    = 15.37170133
ECCENTRICITY   = .000286
INCLINATION    = 51.8749
RA_OF_ASC_NODE = 352.4026
ARG_OF_PERICENTER = 94.1764
MEAN_ANOMALY   = 265.9549

EPHEMERIS_TYPE = 0
CLASSIFICATION_TYPE = U
NORAD_CAT_ID   = 67135
ELEMENT_SET_NO = 999
REV_AT_EPOCH   = 466
BSTAR          = .55372095E-3
MEAN_MOTION_DOT = .20132E-3
MEAN_MOTION_DDOT = 0

CCSDS_OMM_VERS = 2.0
CREATION_DATE  = 
ORIGINATOR     = 

OBJECT_NAME    = KUIPER-00179
OBJECT_ID      = 2025-301D
CENTER_NAME    = EARTH
REF_FRAME      = TEME
TIME_SYSTEM    = UTC
MEAN_ELEMENT_THEORY = SGP/SGP4

EPOCH          = 2026-01-09T05:19:39.480672
MEAN_MOTION    = 15.36740117
ECCENTRICITY   = .00032953
INCLINATION    = 51.8742
RA_OF_ASC_NODE = 352.4413
ARG_OF_PERICENTER = 121.3048
MEAN_ANOMALY   = 238.8262

EPHEMERIS_TYPE = 0
CLASSIFICATION_TYPE = U
NORAD_CAT_ID   = 67136
ELEMENT_SET_NO = 999
REV_AT_EPOCH   = 477
BSTAR          = .89168004E-3
MEAN_MOTION_DOT = .32257E-3
MEAN_MOTION_DDOT = 0

CCSDS_OMM_VERS = 2.0
CREATION_DATE  = 
ORIGINATOR     = 

OBJECT_NAME    = KUIPER-00181
OBJECT_ID      = 2025-301E
CENTER_NAME    = EARTH
REF_FRAME      = TEME
TIME_SYSTEM    = UTC
MEAN_ELEMENT_THEORY = SGP/SGP4

EPOCH          = 2026-01-09T15:24:17.195616
MEAN_MOTION    = 15.34726511
ECCENTRICITY   = .00104254
INCLINATION    = 51.8650
RA_OF_ASC_NODE = 350.7392
ARG_OF_PERICENTER = 189.8231
MEAN_ANOMALY   = 170.2552

EPHEMERIS_TYPE = 0
CLASSIFICATION_TYPE = U
NORAD_CAT_ID   = 67137
ELEMENT_SET_NO = 999
REV_AT_EPOCH   = 481
BSTAR          = .8400006E-3
MEAN_MOTION_DOT = .28477E-3
MEAN_MOTION_DDOT = 0

CCSDS_OMM_VERS = 2.0
CREATION_DATE  = 
ORIGINATOR     = 

OBJECT_NAME    = KUIPER-00183
OBJECT_ID      = 2025-301F
CENTER_NAME    = EARTH
REF_FRAME      = TEME
TIME_SYSTEM    = UTC
MEAN_ELEMENT_THEORY = SGP/SGP4

EPOCH          = 2026-01-09T06:08:08.953152
MEAN_MOTION    = 15.34724992
ECCENTRICITY   = .00111861
INCLINATION    = 51.8629
RA_OF_ASC_NODE = 352.6464
ARG_OF_PERICENTER = 190.1643
MEAN_ANOMALY   = 169.9118

EPHEMERIS_TYPE = 0
CLASSIFICATION_TYPE = U
NORAD_CAT_ID   = 67138
ELEMENT_SET_NO = 999
REV_AT_EPOCH   = 476
BSTAR          = .95289942E-3
MEAN_MOTION_DOT = .3238E-3
MEAN_MOTION_DDOT = 0

